{
  "norad_id": 62339,
  "name": "NAVSTAR 83 (USA 440)",
  "history": [
    {
      "epoch": "2026-03-25T07:53:27.912192",
      "apogee_km": 20225.11688197594,
      "perigee_km": 20138.219043295292,
      "latitude_deg": -53.47666745514526,
      "longitude_deg": 157.46434688009322,
      "semi_major_axis_km": 26559.804962635615,
      "eccentricity": 0.00163589,
      "inclination_deg": 54.8829,
      "raan_deg": 337.583,
      "arg_perigee_deg": 358.994,
      "mean_anomaly_deg": 177.9462,
      "mean_motion_rev_day": 2.00569753
    }
  ]
}